{"type": "FeatureCollection", "features": [ {"type": "Feature", "properties": {"norad_id": 32440, "name": "FENGYUN 1C DEB", "group": "fengyun-1c-debris", "lat": 44.38217781077417, "lon": 44.43072679694053, "alt_km": 981.0797503997173, "timestamp": "2025-12-26T23:26:42.413927+00:00", "meta": {"OBJECT_NAME": "FENGYUN 1C DEB", "OBJECT_ID": "1999-025DBC", "EPOCH": "2025-12-26T08:42:24.513408", "MEAN_MOTION": 13.6135933, "ECCENTRICITY": 0.0323597, "INCLINATION": 99.1541, "RA_OF_ASC_NODE": 214.7749, "ARG_OF_PERICENTER": 55.5826, "MEAN_ANOMALY": 307.546, "EPHEMERIS_TYPE": 0, "CLASSIFICATION_TYPE": "U", "NORAD_CAT_ID": 32440, "ELEMENT_SET_NO": 999, "REV_AT_EPOCH": 60471, "BSTAR": 0.0034134183, "MEAN_MOTION_DOT": 3.652e-05, "MEAN_MOTION_DDOT": 0}, "tle": {"line1": "1 32440U 99025DBC 25360.36278372  .00003652  00000+0  34134-2 0  9994", "line2": "2 32440  99.1541 214.7749 0323597  55.5826 307.5460 13.61359330604715"}}, "geometry": {"type": "Point", "coordinates": [44.43072679694053, 44.38217781077417]}}, {"type": "Feature", "properties": {"norad_id": 32447, "name": "FENGYUN 1C DEB", "group": "fengyun-1c-debris", "lat": -6.347127950021951, "lon": 17.676721126781974, "alt_km": 853.5450881305223, "timestamp": "2025-12-26T23:26:42.413936+00:00", "meta": {"OBJECT_NAME": "FENGYUN 1C DEB", "OBJECT_ID": "1999-025DBK", "EPOCH": "2025-12-09T20:22:18.261408", "MEAN_MOTION": 13.96013309, "ECCENTRICITY": 0.00800272, "INCLINATION": 98.9313, "RA_OF_ASC_NODE": 0.0649, "ARG_OF_PERICENTER": 49.1812, "MEAN_ANOMALY": 311.6255, "EPHEMERIS_TYPE": 0, "CLASSIFICATION_TYPE": "U", "NORAD_CAT_ID": 32447, "ELEMENT_SET_NO": 999, "REV_AT_EPOCH": 67838, "BSTAR": 0.00036340481, "MEAN_MOTION_DOT": 4.69e-06, "MEAN_MOTION_DDOT": 0}, "tle": {"line1": "1 32447U 99025DBK 25343.84882247  .00000469  00000+0  36340-3 0  9992", "line2": "2 32447  98.9313   0.0649 0080027  49.1812 311.6255 13.96013309678386"}}, "geometry": {"type": "Point", "coordinates": [17.676721126781974, -6.347127950021951]}}, {"type": "Feature", "properties": {"norad_id": 32451, "name": "FENGYUN 1C DEB", "group": "fengyun-1c-debris", "lat": -75.76855533212527, "lon": 117.76373093381393, "alt_km": 974.4516313212534, "timestamp": "2025-12-26T23:26:42.413945+00:00", "meta": {"OBJECT_NAME": "FENGYUN 1C DEB", "OBJECT_ID": "1999-025DBP", "EPOCH": "2025-12-25T18:30:07.545024", "MEAN_MOTION": 13.86635615, "ECCENTRICITY": 0.01849358, "INCLINATION": 99.9724, "RA_OF_ASC_NODE": 340.4028, "ARG_OF_PERICENTER": 160.4925, "MEAN_ANOMALY": 200.3427, "EPHEMERIS_TYPE": 0, "CLASSIFICATION_TYPE": "U", "NORAD_CAT_ID": 32451, "ELEMENT_SET_NO": 999, "REV_AT_EPOCH": 61945, "BSTAR": 0.0017668334, "MEAN_MOTION_DOT": 2.303e-05, "MEAN_MOTION_DDOT": 0}, "tle": {"line1": "1 32451U 99025DBP 25359.77092066  .00002303  00000+0  17668-2 0  9998", "line2": "2 32451  99.9724 340.4028 0184935 160.4925 200.3427 13.86635615619452"}}, "geometry": {"type": "Point", "coordinates": [117.76373093381393, -75.76855533212527]}}, {"type": "Feature", "properties": {"norad_id": 32453, "name": "FENGYUN 1C DEB", "group": "fengyun-1c-debris", "lat": -73.25975828239004, "lon": 57.78187303700275, "alt_km": 891.8506697460143, "timestamp": "2025-12-26T23:26:42.413954+00:00", "meta": {"OBJECT_NAME": "FENGYUN 1C DEB", "OBJECT_ID": "1999-025DBR", "EPOCH": "2025-12-26T11:57:34.403040", "MEAN_MOTION": 14.02277609, "ECCENTRICITY": 0.00966031, "INCLINATION": 99.3716, "RA_OF_ASC_NODE": 270.5918, "ARG_OF_PERICENTER": 167.8789, "MEAN_ANOMALY": 192.4733, "EPHEMERIS_TYPE": 0, "CLASSIFICATION_TYPE": "U", "NORAD_CAT_ID": 32453, "ELEMENT_SET_NO": 999, "REV_AT_EPOCH": 93621, "BSTAR": 0.00058897195, "MEAN_MOTION_DOT": 8.94e-06, "MEAN_MOTION_DDOT": 0}, "tle": {"line1": "1 32453U 99025DBR 25360.49831485  .00000894  00000+0  58897-3 0  9990", "line2": "2 32453  99.3716 270.5918 0096603 167.8789 192.4733 14.02277609936214"}}, "geometry": {"type": "Point", "coordinates": [57.78187303700275, -73.25975828239004]}}, {"type": "Feature", "properties": {"norad_id": 32455, "name": "FENGYUN 1C DEB", "group": "fengyun-1c-debris", "lat": -6.840168836474374, "lon": 15.427794633182657, "alt_km": 880.5587255393475, "timestamp": "2025-12-26T23:26:42.413963+00:00", "meta": {"OBJECT_NAME": "FENGYUN 1C DEB", "OBJECT_ID": "1999-025DBT", "EPOCH": "2025-12-19T18:08:22.954272", "MEAN_MOTION": 13.92504596, "ECCENTRICITY": 0.02356741, "INCLINATION": 101.733, "RA_OF_ASC_NODE": 187.728, "ARG_OF_PERICENTER": 127.7857, "MEAN_ANOMALY": 234.4892, "EPHEMERIS_TYPE": 0, "CLASSIFICATION_TYPE": "U", "NORAD_CAT_ID": 32455, "ELEMENT_SET_NO": 999, "REV_AT_EPOCH": 64513, "BSTAR": 0.001718498, "MEAN_MOTION_DOT": 2.717e-05, "MEAN_MOTION_DDOT": 0}, "tle": {"line1": "1 32455U 99025DBT 25353.75582123  .00002717  00000+0  17185-2 0  9995", "line2": "2 32455 101.7330 187.7280 0235674 127.7857 234.4892 13.92504596645138"}}, "geometry": {"type": "Point", "coordinates": [15.427794633182657, -6.840168836474374]}}, {"type": "Feature", "properties": {"norad_id": 32456, "name": "FENGYUN 1C DEB", "group": "fengyun-1c-debris", "lat": 26.422545357866426, "lon": 139.1782077669185, "alt_km": 1403.4085645688538, "timestamp": "2025-12-26T23:26:42.413971+00:00", "meta": {"OBJECT_NAME": "FENGYUN 1C DEB", "OBJECT_ID": "1999-025DBU", "EPOCH": "2025-12-17T03:48:04.533120", "MEAN_MOTION": 13.35640436, "ECCENTRICITY": 0.03794971, "INCLINATION": 103.6656, "RA_OF_ASC_NODE": 133.0133, "ARG_OF_PERICENTER": 216.4895, "MEAN_ANOMALY": 140.98, "EPHEMERIS_TYPE": 0, "CLASSIFICATION_TYPE": "U", "NORAD_CAT_ID": 32456, "ELEMENT_SET_NO": 999, "REV_AT_EPOCH": 60675, "BSTAR": 0.0016364212, "MEAN_MOTION_DOT": 1.184e-05, "MEAN_MOTION_DDOT": 0}, "tle": {"line1": "1 32456U 99025DBU 25351.15838580  .00001184  00000+0  16364-2 0  9994", "line2": "2 32456 103.6656 133.0133 0379497 216.4895 140.9800 13.35640436606758"}}, "geometry": {"type": "Point", "coordinates": [139.1782077669185, 26.422545357866426]}}, {"type": "Feature", "properties": {"norad_id": 32458, "name": "FENGYUN 1C DEB", "group": "fengyun-1c-debris", "lat": 57.50928105459458, "lon": 7.717879715584917, "alt_km": 678.8001971027988, "timestamp": "2025-12-26T23:26:42.413980+00:00", "meta": {"OBJECT_NAME": "FENGYUN 1C DEB", "OBJECT_ID": "1999-025DBW", "EPOCH": "2025-12-24T07:08:24.791424", "MEAN_MOTION": 14.62437066, "ECCENTRICITY": 0.00398704, "INCLINATION": 99.044, "RA_OF_ASC_NODE": 19.2699, "ARG_OF_PERICENTER": 338.3215, "MEAN_ANOMALY": 21.6295, "EPHEMERIS_TYPE": 0, "CLASSIFICATION_TYPE": "U", "NORAD_CAT_ID": 32458, "ELEMENT_SET_NO": 999, "REV_AT_EPOCH": 67958, "BSTAR": 0.0016307189, "MEAN_MOTION_DOT": 8.3e-05, "MEAN_MOTION_DDOT": 0}, "tle": {"line1": "1 32458U 99025DBW 25358.29750916  .00008300  00000+0  16307-2 0  9998", "line2": "2 32458  99.0440  19.2699 0039870 338.3215  21.6295 14.62437066679587"}}, "geometry": {"type": "Point", "coordinates": [7.717879715584917, 57.50928105459458]}}, {"type": "Feature", "properties": {"norad_id": 32459, "name": "FENGYUN 1C DEB", "group": "fengyun-1c-debris", "lat": -27.71389970963626, "lon": -169.5516003158793, "alt_km": 686.893198452367, "timestamp": "2025-12-26T23:26:42.413989+00:00", "meta": {"OBJECT_NAME": "FENGYUN 1C DEB", "OBJECT_ID": "1999-025DBX", "EPOCH": "2025-12-25T06:33:23.628096", "MEAN_MOTION": 14.42855395, "ECCENTRICITY": 0.0213833, "INCLINATION": 98.3015, "RA_OF_ASC_NODE": 13.1867, "ARG_OF_PERICENTER": 148.4446, "MEAN_ANOMALY": 212.9776, "EPHEMERIS_TYPE": 0, "CLASSIFICATION_TYPE": "U", "NORAD_CAT_ID": 32459, "ELEMENT_SET_NO": 999, "REV_AT_EPOCH": 94731, "BSTAR": 0.00042882, "MEAN_MOTION_DOT": 1.837e-05, "MEAN_MOTION_DDOT": 0}, "tle": {"line1": "1 32459U 99025DBX 25359.27319014  .00001837  00000+0  42882-3 0  9994", "line2": "2 32459  98.3015  13.1867 0213833 148.4446 212.9776 14.42855395947312"}}, "geometry": {"type": "Point", "coordinates": [-169.5516003158793, -27.71389970963626]}}, {"type": "Feature", "properties": {"norad_id": 32460, "name": "FENGYUN 1C DEB", "group": "fengyun-1c-debris", "lat": 42.57961235438233, "lon": 136.75352139685714, "alt_km": 823.3711762143193, "timestamp": "2025-12-26T23:26:42.414000+00:00", "meta": {"OBJECT_NAME": "FENGYUN 1C DEB", "OBJECT_ID": "1999-025DBY", "EPOCH": "2025-12-23T15:45:03.737664", "MEAN_MOTION": 13.89610403, "ECCENTRICITY": 0.01859289, "INCLINATION": 98.0212, "RA_OF_ASC_NODE": 141.3333, "ARG_OF_PERICENTER": 93.8399, "MEAN_ANOMALY": 268.4041, "EPHEMERIS_TYPE": 0, "CLASSIFICATION_TYPE": "U", "NORAD_CAT_ID": 32460, "ELEMENT_SET_NO": 999, "REV_AT_EPOCH": 65405, "BSTAR": 0.00093026192, "MEAN_MOTION_DOT": 1.276e-05, "MEAN_MOTION_DDOT": 0}, "tle": {"line1": "1 32460U 99025DBY 25357.65629326  .00001276  00000+0  93026-3 0  9999", "line2": "2 32460  98.0212 141.3333 0185928  93.8399 268.4041 13.89610403654051"}}, "geometry": {"type": "Point", "coordinates": [136.75352139685714, 42.57961235438233]}}, {"type": "Feature", "properties": {"norad_id": 32461, "name": "FENGYUN 1C DEB", "group": "fengyun-1c-debris", "lat": 6.039964071378656, "lon": -146.5641018835759, "alt_km": 935.7543145307145, "timestamp": "2025-12-26T23:26:42.414010+00:00", "meta": {"OBJECT_NAME": "FENGYUN 1C DEB", "OBJECT_ID": "1999-025DBZ", "EPOCH": "2025-12-24T02:10:28.329888", "MEAN_MOTION": 13.72863387, "ECCENTRICITY": 0.02328242, "INCLINATION": 98.3337, "RA_OF_ASC_NODE": 211.8091, "ARG_OF_PERICENTER": 86.3573, "MEAN_ANOMALY": 65.2685, "EPHEMERIS_TYPE": 0, "CLASSIFICATION_TYPE": "U", "NORAD_CAT_ID": 32461, "ELEMENT_SET_NO": 999, "REV_AT_EPOCH": 67450, "BSTAR": 0.0012271191, "MEAN_MOTION_DOT": 1.339e-05, "MEAN_MOTION_DDOT": 0}, "tle": {"line1": "1 32461U 99025DBZ 25358.09060567  .00001339  00000+0  12271-2 0  9997", "line2": "2 32461  98.3337 211.8091 0232824  86.3573  65.2685 13.72863387674508"}}, "geometry": {"type": "Point", "coordinates": [-146.5641018835759, 6.039964071378656]}}]}